[{"OBJECT_NAME":"CUBESX-HSE 3 (RS42S)","OBJECT_ID":"2023-091N","EPOCH":"2026-03-09T22:57:25.321248","MEAN_MOTION":15.286147,"ECCENTRICITY":0.00127191,"INCLINATION":97.5203,"RA_OF_ASC_NODE":133.4295,"ARG_OF_PERICENTER":86.5376,"MEAN_ANOMALY":273.7318,"EPHEMERIS_TYPE":0,"CLASSIFICATION_TYPE":"U","NORAD_CAT_ID":57178,"ELEMENT_SET_NO":999,"REV_AT_EPOCH":14925,"BSTAR":0.00059055694,"MEAN_MOTION_DOT":0.00016417,"MEAN_MOTION_DDOT":0},{"OBJECT_NAME":"STARLINK-36498","OBJECT_ID":"2026-002P","EPOCH":"2026-03-09T09:39:26.266176","MEAN_MOTION":15.27607877,"ECCENTRICITY":0.00010349,"INCLINATION":42.9959,"RA_OF_ASC_NODE":326.9974,"ARG_OF_PERICENTER":22.2652,"MEAN_ANOMALY":337.8245,"EPHEMERIS_TYPE":0,"CLASSIFICATION_TYPE":"U","NORAD_CAT_ID":67318,"ELEMENT_SET_NO":999,"REV_AT_EPOCH":1109,"BSTAR":0.0010208157,"MEAN_MOTION_DOT":0.00027959,"MEAN_MOTION_DDOT":0}]
